{
  "type": "FeatureCollection",
  "features": [
    {
      "type": "Feature",
      "properties": {
        "norad_id": 41026,
        "name": "YAOGAN-28",
        "group": "resource",
        "lat": 70.79653203471054,
        "lon": 108.01526714130507,
        "alt_km": 478.7781821518138,
        "timestamp": "2025-12-17T21:39:45.365946+00:00",
        "meta_object_name": "YAOGAN-28",
        "meta_object_id": "2015-064A",
        "meta_epoch": "2025-12-17T15:02:45.092256",
        "meta_mean_motion": 15.24433527,
        "meta_eccentricity": 0.00125676,
        "meta_inclination": 97.2804,
        "meta_ra_of_asc_node": 129.2811,
        "meta_arg_of_pericenter": 110.4331,
        "meta_mean_anomaly": 249.8257,
        "meta_ephemeris_type": 0,
        "meta_classification_type": "U",
        "meta_norad_cat_id": 41026,
        "meta_element_set_no": 999,
        "meta_rev_at_epoch": 56299,
        "meta_bstar": 0.00026399241,
        "meta_mean_motion_dot": 6.422e-05,
        "meta_mean_motion_ddot": 0,
        "tle_line1": "1 41026U 15064A   25351.62691079  .00006422  00000+0  26399-3 0  9990",
        "tle_line2": "2 41026  97.2804 129.2811 0012567 110.4331 249.8257 15.24433527562997"
      },
      "geometry": {
        "type": "Point",
        "coordinates": [
          108.01526714130507,
          70.79653203471054
        ]
      }
    },
    {
      "type": "Feature",
      "properties": {
        "norad_id": 41038,
        "name": "YAOGAN-29",
        "group": "resource",
        "lat": 60.34094575584648,
        "lon": -150.5699174563316,
        "alt_km": 614.3526537623065,
        "timestamp": "2025-12-17T21:39:45.365955+00:00",
        "meta_object_name": "YAOGAN-29",
        "meta_object_id": "2015-069A",
        "meta_epoch": "2025-12-17T14:39:06.581376",
        "meta_mean_motion": 14.82886131,
        "meta_eccentricity": 2.707e-05,
        "meta_inclination": 98.0219,
        "meta_ra_of_asc_node": 14.7982,
        "meta_arg_of_pericenter": 202.1311,
        "meta_mean_anomaly": 157.9891,
        "meta_ephemeris_type": 0,
        "meta_classification_type": "U",
        "meta_norad_cat_id": 41038,
        "meta_element_set_no": 999,
        "meta_rev_at_epoch": 54371,
        "meta_bstar": -2.551702e-06,
        "meta_mean_motion_dot": -7.5e-07,
        "meta_mean_motion_ddot": 0,
        "tle_line1": "1 41038U 15069A   25351.61049284 -.00000075  00000+0 -25517-5 0  9995",
        "tle_line2": "2 41038  98.0219  14.7982 0000270 202.1311 157.9891 14.82886131543719"
      },
      "geometry": {
        "type": "Point",
        "coordinates": [
          -150.5699174563316,
          60.34094575584648
        ]
      }
    },
    {
      "type": "Feature",
      "properties": {
        "norad_id": 41167,
        "name": "KENT RIDGE 1",
        "group": "resource",
        "lat": 14.964459872467174,
        "lon": -95.88224718952341,
        "alt_km": 498.1233811287084,
        "timestamp": "2025-12-17T21:39:45.365964+00:00",
        "meta_object_name": "KENT RIDGE 1",
        "meta_object_id": "2015-077B",
        "meta_epoch": "2025-12-17T03:57:31.233312",
        "meta_mean_motion": 15.21671932,
        "meta_eccentricity": 0.00084828,
        "meta_inclination": 14.978,
        "meta_ra_of_asc_node": 178.304,
        "meta_arg_of_pericenter": 193.5455,
        "meta_mean_anomaly": 166.4639,
        "meta_ephemeris_type": 0,
        "meta_classification_type": "U",
        "meta_norad_cat_id": 41167,
        "meta_element_set_no": 999,
        "meta_rev_at_epoch": 55331,
        "meta_bstar": 0.00014001964,
        "meta_mean_motion_dot": 4.017e-05,
        "meta_mean_motion_ddot": 0,
        "tle_line1": "1 41167U 15077B   25351.16494483  .00004017  00000+0  14002-3 0  9995",
        "tle_line2": "2 41167  14.9780 178.3040 0008482 193.5455 166.4639 15.21671932553316"
      },
      "geometry": {
        "type": "Point",
        "coordinates": [
          -95.88224718952341,
          14.964459872467174
        ]
      }
    },
    {
      "type": "Feature",
      "properties": {
        "norad_id": 41194,
        "name": "GAOFEN-4",
        "group": "resource",
        "lat": 0.17854314023193799,
        "lon": 157.39148188135584,
        "alt_km": 35773.73011173627,
        "timestamp": "2025-12-17T21:39:45.365978+00:00",
        "meta_object_name": "GAOFEN-4",
        "meta_object_id": "2015-083A",
        "meta_epoch": "2025-12-17T16:23:22.933248",
        "meta_mean_motion": 1.00274135,
        "meta_eccentricity": 0.0002937,
        "meta_inclination": 0.1826,
        "meta_ra_of_asc_node": 81.7781,
        "meta_arg_of_pericenter": 93.7551,
        "meta_mean_anomaly": 262.5686,
        "meta_ephemeris_type": 0,
        "meta_classification_type": "U",
        "meta_norad_cat_id": 41194,
        "meta_element_set_no": 999,
        "meta_rev_at_epoch": 3670,
        "meta_bstar": 0,
        "meta_mean_motion_dot": -3.1e-06,
        "meta_mean_motion_ddot": 0,
        "tle_line1": "1 41194U 15083A   25351.68290432 -.00000310  00000+0  00000+0 0  9999",
        "tle_line2": "2 41194   0.1826  81.7781 0002937  93.7551 262.5686  1.00274135 36705"
      },
      "geometry": {
        "type": "Point",
        "coordinates": [
          157.39148188135584,
          0.17854314023193799
        ]
      }
    },
    {
      "type": "Feature",
      "properties": {
        "norad_id": 41240,
        "name": "JASON-3",
        "group": "resource",
        "lat": 51.276243580834446,
        "lon": -66.70934488169617,
        "alt_km": 1310.0653337253116,
        "timestamp": "2025-12-17T21:39:45.365987+00:00",
        "meta_object_name": "JASON-3",
        "meta_object_id": "2016-002A",
        "meta_epoch": "2025-12-17T15:26:31.385184",
        "meta_mean_motion": 12.87626769,
        "meta_eccentricity": 0.00071879,
        "meta_inclination": 66.0396,
        "meta_ra_of_asc_node": 147.5146,
        "meta_arg_of_pericenter": 271.0779,
        "meta_mean_anomaly": 88.9417,
        "meta_ephemeris_type": 0,
        "meta_classification_type": "U",
        "meta_norad_cat_id": 41240,
        "meta_element_set_no": 999,
        "meta_rev_at_epoch": 46387,
        "meta_bstar": 4.9959434e-05,
        "meta_mean_motion_dot": -5e-07,
        "meta_mean_motion_ddot": 0,
        "tle_line1": "1 41240U 16002A   25351.64341881 -.00000050  00000+0  49959-4 0  9996",
        "tle_line2": "2 41240  66.0396 147.5146 0007187 271.0779  88.9417 12.87626769463876"
      },
      "geometry": {
        "type": "Point",
        "coordinates": [
          -66.70934488169617,
          51.276243580834446
        ]
      }
    },
    {
      "type": "Feature",
      "properties": {
        "norad_id": 41335,
        "name": "SENTINEL-3A",
        "group": "resource",
        "lat": -35.45847384442446,
        "lon": -129.36721411828225,
        "alt_km": 809.2792936122778,
        "timestamp": "2025-12-17T21:39:45.365996+00:00",
        "meta_object_name": "SENTINEL-3A",
        "meta_object_id": "2016-011A",
        "meta_epoch": "2025-12-17T13:55:18.098976",
        "meta_mean_motion": 14.26732548,
        "meta_eccentricity": 9.172e-05,
        "meta_inclination": 98.631,
        "meta_ra_of_asc_node": 56.5248,
        "meta_arg_of_pericenter": 92.6808,
        "meta_mean_anomaly": 267.4478,
        "meta_ephemeris_type": 0,
        "meta_classification_type": "U",
        "meta_norad_cat_id": 41335,
        "meta_element_set_no": 999,
        "meta_rev_at_epoch": 51216,
        "meta_bstar": 6.2266799e-05,
        "meta_mean_motion_dot": 1.07e-06,
        "meta_mean_motion_ddot": 0,
        "tle_line1": "1 41335U 16011A   25351.58007059  .00000107  00000+0  62267-4 0  9999",
        "tle_line2": "2 41335  98.6310  56.5248 0000917  92.6808 267.4478 14.26732548512160"
      },
      "geometry": {
        "type": "Point",
        "coordinates": [
          -129.36721411828225,
          -35.45847384442446
        ]
      }
    },
    {
      "type": "Feature",
      "properties": {
        "norad_id": 41556,
        "name": "ZIYUAN 3-02 (ZY 3-02)",
        "group": "resource",
        "lat": -74.27992419880042,
        "lon": 93.50364220775378,
        "alt_km": 505.67217125202933,
        "timestamp": "2025-12-17T21:39:45.366005+00:00",
        "meta_object_name": "ZIYUAN 3-02 (ZY 3-02)",
        "meta_object_id": "2016-033A",
        "meta_epoch": "2025-12-17T15:40:53.849856",
        "meta_mean_motion": 15.21125564,
        "meta_eccentricity": 0.00108515,
        "meta_inclination": 97.4045,
        "meta_ra_of_asc_node": 65.7399,
        "meta_arg_of_pericenter": 228.0528,
        "meta_mean_anomaly": 131.9784,
        "meta_ephemeris_type": 0,
        "meta_classification_type": "U",
        "meta_norad_cat_id": 41556,
        "meta_element_set_no": 999,
        "meta_rev_at_epoch": 53038,
        "meta_bstar": 0.00024847044,
        "meta_mean_motion_dot": 5.469e-05,
        "meta_mean_motion_ddot": 0,
        "tle_line1": "1 41556U 16033A   25351.65340104  .00005469  00000+0  24847-3 0  9994",
        "tle_line2": "2 41556  97.4045  65.7399 0010851 228.0528 131.9784 15.21125564530387"
      },
      "geometry": {
        "type": "Point",
        "coordinates": [
          93.50364220775378,
          -74.27992419880042
        ]
      }
    }
  ]
}